{
  "norad_id": 58937,
  "name": "STARLINK-31390",
  "history": [
    {
      "epoch": "2026-03-28T18:04:54.280128",
      "apogee_km": 475.9908840557,
      "perigee_km": 474.51959780941615,
      "latitude_deg": -52.188542206097566,
      "longitude_deg": 146.02697791997343,
      "semi_major_axis_km": 6853.392240932558,
      "eccentricity": 0.00010734,
      "inclination_deg": 53.1596,
      "raan_deg": 221.3131,
      "arg_perigee_deg": 73.0219,
      "mean_anomaly_deg": 287.0899,
      "mean_motion_rev_day": 15.30186546
    },
    {
      "epoch": "2026-03-29T01:55:10.637472",
      "apogee_km": 475.9291935525407,
      "perigee_km": 474.5914103991954,
      "latitude_deg": -34.42036706113439,
      "longitude_deg": 177.37848607986234,
      "semi_major_axis_km": 6853.397301975868,
      "eccentricity": 9.76e-05,
      "inclination_deg": 53.1593,
      "raan_deg": 219.7955,
      "arg_perigee_deg": 84.8278,
      "mean_anomaly_deg": 275.2834,
      "mean_motion_rev_day": 15.30184851
    }
  ]
}